{"type": "FeatureCollection", "features": [{"type": "Feature", "geometry": {"type": "Point", "coordinates": [60.011331305145454, 40.012837910431074]}, "properties": {"kind": "pole", "id": 0, "x": 60.011331305145454, "y": 40.012837910431074, "height": 10.0414549091753}}, {"type": "Feature", "geometry": {"type": "Point", "coordinates": [9.996340320784508, 39.992278460159326]}, "properties": {"kind": "pole", "id": 1, "x": 9.996340320784508, "y": 39.992278460159326, "height": 10.040653786130743}}, {"type": "Feature", "geometry": {"type": "Point", "coordinates": [109.99613020336217, 40.01394118276271]}, "properties": {"kind": "pole", "id": 2, "x": 109.99613020336217, "y": 40.01394118276271, "height": 10.057842639083988}}, {"type": "Feature", "geometry": {"type": "Point", "coordinates": [160.0160818100377, 41.518422338494915]}, "properties": {"kind": "pole", "id": 3, "x": 160.0160818100377, "y": 41.518422338494915, "height": 9.860355169888535}}, {"type": "Feature", "geometry": {"type": "Point", "coordinates": [210.0073519352154, 49.00536618413236]}, "properties": {"kind": "pole", "id": 4, "x": 210.0073519352154, "y": 49.00536618413236, "height": 9.938610004123317}}, {"type": "Feature", "geometry": {"type": "Point", "coordinates": [259.9977913488193, 56.46415389515066]}, "properties": {"kind": "pole", "id": 5, "x": 259.9977913488193, "y": 56.46415389515066, "height": 10.010189123623586}}, {"type": "Feature", "properties": {"kind": "conductor", "a": 408.68198660059704, "sag": 0.7644774791827516, "length": 49.98479891039252, "rmse": 0.028757797021046628, "poles": [0, 2], "min_dist": 1.416780373694001, "n_within": 78}, "geometry": {"type": "LineString", "coordinates": [[60.011351465714256, 39.0994442283452, 11.799150833980933], [62.01135146522707, 39.099488372659295, 11.70861366201786], [64.01135146473989, 39.0995325169734, 11.627873039507362], [66.01135146425271, 39.09957666128749, 11.556927032781202], [68.01135146376554, 39.099620805601596, 11.495773942743883], [70.01135146327836, 39.09966494991569, 11.444412304831713], [72.01135146279117, 39.099709094229794, 11.402840888977511], [74.01135146230399, 39.09975323854389, 11.371058699582111], [76.01135146181682, 39.099797382857986, 11.349064975489313], [78.01135146132964, 39.09984152717209, 11.336859189968377], [80.01135146084245, 39.099885671486184, 11.334441050701402], [82.01135146035527, 39.09992981580029, 11.341810499775887], [84.0113514598681, 39.09997396011438, 11.358967713683827], [86.0113514593809, 39.100018104428486, 11.38591310332579], [88.01135145889373, 39.10006224874258, 11.42264731402054], [90.01135145840655, 39.100106393056684, 11.469171225520741], [92.01135145791937, 39.10015053737078, 11.525485952033815], [94.0113514574322, 39.100194681684876, 11.591592842248907], [96.01135145694501, 39.10023882599898, 11.667493479369002], [98.01135145645783, 39.100282970313074, 11.753189681148948], [100.01135145597064, 39.10032711462718, 11.848683499938655], [102.01135145548346, 39.10037125894127, 11.953977222732636], [104.01135145499629, 39.100415403255376, 12.06907337122482], [106.01135145450911, 39.10045954756947, 12.193974701868626], [108.01135145402193, 39.10050369188357, 12.32868420594294], [110.01135145353476, 39.10054783619767, 12.473205109624246]]}}, {"type": "Feature", "properties": {"kind": "conductor", "a": 396.04473997366284, "sag": 0.7888936800176634, "length": 49.98479891039252, "rmse": 0.032973170941913, "poles": [0, 2], "min_dist": 2.197145192938395, "n_within": 22}, "geometry": {"type": "LineString", "coordinates": [[60.01133160156739, 39.99940823340956, 11.795210184081212], [62.01133160108021, 39.99945237772366, 11.702165933234765], [64.01133160059302, 39.99949652203776, 11.619231342408023], [66.01133160010585, 39.999540666351855, 11.546404296611883], [68.01133159961867, 39.99958481066596, 11.483682938618852], [70.0113315991315, 39.999628954980054, 11.43106566891572], [72.0113315986443, 39.99967309929416, 11.388551145662328], [74.01133159815713, 39.99971724360825, 11.356138284657971], [76.01133159766995, 39.99976138792235, 11.333826259313255], [78.01133159718276, 39.99980553223645, 11.321614500629437], [80.01133159669558, 39.99984967655055, 11.319502697183554], [82.01133159620841, 39.99989382086465, 11.32749079512043], [84.01133159572123, 39.999937965178745, 11.345578998151879], [86.01133159523405, 39.99998210949285, 11.373767767561192], [88.01133159474686, 40.00002625380694, 11.412057822215537], [90.01133159425969, 40.000070398121046, 11.460450138583544], [92.01133159377251, 40.00011454243514, 11.518945950760898], [94.01133159328532, 40.00015868674924, 11.587546750501735], [96.01133159279814, 40.00020283106334, 11.666254287256097], [98.01133159231097, 40.000246975377436, 11.755070568215231], [100.01133159182379, 40.00029111969154, 11.853997858362323], [102.01133159133661, 40.000335264005635, 11.963038680530627], [104.01133159084942, 40.00037940831974, 12.082195815467486], [106.01133159036225, 40.00042355263383, 12.211472301905305], [108.01133158987506, 40.00046769694793, 12.350871436639187], [110.01133158938788, 40.00051184126203, 12.500396774610932]]}}, {"type": "Feature", "properties": {"kind": "conductor", "a": 392.53962221910075, "sag": 0.7959424399834365, "length": 49.98479891039252, "rmse": 0.029079524915272784, "poles": [0, 2], "min_dist": 2.9919316815961032, "n_within": 6}, "geometry": {"type": "LineString", "coordinates": [[60.01131173607222, 40.89943332480721, 11.801458439748801], [62.01131173558504, 40.89947746912131, 11.707280617694781], [64.01131173509786, 40.89952161343541, 11.623302973804792], [66.01131173461069, 40.89956575774951, 11.54952332807304], [68.0113117341235, 40.89960990206361, 11.485939765227462], [70.01131173363632, 40.899654046377705, 11.432550634679602], [72.01131173314914, 40.89969819069181, 11.389354550482077], [74.01131173266197, 40.899742335005904, 11.35635039129214], [76.01131173217478, 40.89978647932, 11.333537300343188], [78.0113117316876, 40.8998306236341, 11.320914685421826], [80.01131173120042, 40.8998747679482, 11.318482218853408], [82.01131173071323, 40.8999189122623, 11.326239837492531], [84.01131173022605, 40.8999630565764, 11.344187742721818], [86.01131172973888, 40.9000072008905, 11.372326400457581], [88.0113117292517, 40.900051345204595, 11.410656541161154], [90.01131172876453, 40.9000954895187, 11.459179159858415], [92.01131172827733, 40.900139633832794, 11.517895516165327], [94.01131172779016, 40.90018377814689, 11.586807134320619], [96.01131172730297, 40.90022792246099, 11.6659158032258], [98.01131172681579, 40.90027206677509, 11.755223576490913], [100.01131172632861, 40.90031621108919, 11.854732772488312], [102.01131172584144, 40.900360355403286, 11.964445974412811], [104.01131172535426, 40.90040449971739, 12.084366030348532], [106.01131172486708, 40.900448644031485, 12.21449605334299], [108.0113117243799, 40.90049278834558, 12.354839421487979], [110.01131172389272, 40.90053693265968, 12.505399778007089]]}}, {"type": "Feature", "properties": {"kind": "conductor", "a": 392.16767696637845, "sag": 0.7978793262564317, "length": 50.014995210003796, "rmse": 0.027698652132038478, "poles": [0, 1], "min_dist": 1.2563441331567564, "n_within": 93}, "geometry": {"type": "LineString", "coordinates": [[60.01170254442513, 39.10972382029082, 11.802916976850808], [58.01170271340016, 39.108901688840625, 11.62577682665857], [56.011702882375204, 39.108079557390425, 11.45887407550761], [54.01170305135024, 39.10725742594023, 11.302204382487322], [52.01170322032527, 39.10643529449004, 11.155763672834826], [50.011703389300315, 39.10561316303984, 11.019548137829196], [48.01170355827535, 39.10479103158965, 10.893554234692076], [46.01170372725039, 39.10396890013945, 10.777778686495653], [44.01170389622543, 39.10314676868926, 10.67221848207749], [42.01170406520046, 39.102324637239064, 10.576870875962065], [40.011704234175504, 39.101502505788865, 10.491733388289637], [38.01170440315054, 39.10068037433867, 10.416803804751359], [36.01170457212558, 39.09985824288848, 10.352080176532167], [34.011704741100615, 39.09903611143828, 10.29756082025957], [32.01170491007565, 39.09821397998809, 10.253244317960199], [30.01170507905069, 39.097391848537896, 10.219129517023148], [28.011705248025727, 39.0965697170877, 10.195215530169238], [26.011705417000762, 39.095747585637504, 10.181501735428718], [24.011705585975804, 39.094925454187305, 10.177987776124638], [22.01170575495084, 39.09410332273711, 10.184673560863706], [20.01170592392588, 39.09328119128692, 10.201559263534108], [18.011706092900916, 39.09245905983672, 10.228645323309602], [16.01170626187595, 39.09163692838653, 10.265932444661274], [14.011706430850992, 39.090814796936336, 10.313421597375914], [12.011706599826027, 39.089992665486136, 10.37111401658074], [10.011706768801062, 39.089170534035944, 10.439011202776149], [8.011706937776104, 39.08834840258575, 10.517114921874454]]}}, {"type": "Feature", "properties": {"kind": "conductor", "a": 391.1418031414728, "sag": 0.7999797380347324, "length": 50.014995210003796, "rmse": 0.030962809996045077, "poles": [0, 1], "min_dist": 2.050453087595563, "n_within": 43}, "geometry": {"type": "LineString", "coordinates": [[60.01133188094919, 40.011437152225845, 11.812169071896077], [58.01133204992423, 40.01061502077565, 11.634128377419088], [56.01133221889927, 40.00979288932545, 11.466352322031394], [54.011332387874305, 40.00897075787526, 11.308836519189256], [52.01133255684934, 40.00814862642507, 11.161576850605925], [50.01133272582438, 40.00732649497487, 11.024569466143408], [48.011332894799416, 40.00650436352468, 10.897810783712076], [46.01133306377446, 40.00568223207448, 10.781297489176868], [44.01133323274949, 40.004860100624285, 10.675026536271044], [42.01133340172453, 40.00403796917409, 10.57899514651611], [40.01133357069957, 40.00321583772389, 10.493200809149032], [38.011333739674605, 40.0023937062737, 10.417641281057369], [36.01133390864965, 40.00157157482351, 10.352314586719682], [34.01133407762468, 40.00074944337331, 10.297219018154646], [32.011334246599716, 39.999927311923116, 10.252353134875799], [30.011334415574755, 39.999105180472924, 10.21771576385437], [28.011334584549793, 39.998283049022724, 10.19330599948836], [26.011334753524828, 39.99746091757253, 10.179123203578653], [24.01133492249987, 39.99663878612233, 10.175167005313048], [22.011335091474905, 39.99581665467214, 10.18143730125574], [20.011335260449947, 39.99499452322195, 10.197934255345057], [18.01133542942498, 39.99417239177175, 10.224658298897648], [16.011335598400017, 39.993350260321556, 10.26161013061975], [14.011335767375058, 39.99252812887136, 10.308790716625534], [12.011335936350093, 39.991705997421164, 10.366201290462277], [10.011336105325128, 39.99088386597097, 10.433843353142764], [8.01133627430017, 39.99006173452078, 10.511718673184115]]}}, {"type": "Feature", "properties": {"kind": "conductor", "a": 403.22549133299566, "sag": 0.7759842035918503, "length": 50.014995210003796, "rmse": 0.028965862226401694, "poles": [0, 1], "min_dist": 2.905969161388301, "n_within": 11}, "geometry": {"type": "LineString", "coordinates": [[60.010962195276356, 40.91077178176433, 11.785905269304266], [58.01096236425139, 40.90994965031414, 11.612161397748888], [56.01096253322643, 40.90912751886394, 11.448372809177393], [54.01096270220147, 40.90830538741375, 11.294535474113939], [52.0109628711765, 40.907483255963555, 11.150645607900282], [50.010963040151545, 40.906661124513356, 11.01669967060265], [48.01096320912658, 40.90583899306316, 10.89269436692482], [46.01096337810162, 40.905016861612964, 10.778626646126902], [44.010963547076656, 40.90419473016277, 10.674493701950217], [42.01096371605169, 40.90337259871258, 10.580292972548545], [40.01096388502673, 40.90255046726238, 10.496022140424905], [38.01096405400177, 40.90172833581219, 10.421679132374347], [36.01096422297681, 40.900906204361995, 10.357262119433452], [34.010964391951845, 40.900084072911795, 10.302769516834765], [32.01096456092688, 40.8992619414616, 10.258199983968375], [30.010964729901918, 40.89843981001141, 10.223552424348528], [28.010964898876956, 40.89761767856121, 10.198825985586586], [26.01096506785199, 40.89679554711102, 10.18402005937052], [24.010965236827033, 40.89597341566082, 10.179134281449421], [22.010965405802068, 40.89515128421063, 10.184168531625089], [20.01096557477711, 40.894329152760434, 10.199122933748265], [18.010965743752145, 40.893507021310235, 10.223997855722846], [16.01096591272718, 40.89268488986004, 10.258793909513763], [14.010966081702222, 40.89186275840985, 10.303511951162731], [12.010966250677257, 40.89104062695965, 10.358153080809032], [10.010966419652291, 40.89021849550946, 10.422718642716818], [8.010966588627333, 40.889396364059266, 10.497210225307876]]}}, {"type": "Feature", "properties": {"kind": "conductor", "a": 404.8188800803382, "sag": 0.7735244808990522, "length": 50.042572098985026, "rmse": 0.030862424551101636, "poles": [2, 3], "min_dist": 6.619550817953172, "n_within": 2}, "geometry": {"type": "LineString", "coordinates": [[110.02366095327842, 39.09861780150287, 12.480123083196656], [112.02275690333212, 39.158745852185646, 12.379542583200571], [114.02185285338581, 39.218873902868424, 12.288854355181105], [116.02094880343951, 39.27900195355121, 12.208056185583567], [118.02004475349321, 39.339130004233986, 12.137146102253555], [120.0191407035469, 39.399258054916764, 12.076122374389401], [122.0182366536006, 39.45938610559954, 12.024983512499213], [124.0173326036543, 39.51951415628233, 11.983728268365095], [126.01642855370798, 39.579642206965104, 11.952355635012493], [128.0155245037617, 39.63977025764788, 11.930864846685658], [130.01462045381538, 39.69989830833066, 11.91925537882859], [132.01371640386907, 39.760026359013445, 11.917526948072815], [134.01281235392278, 39.82015440969622, 11.925679512230012], [136.01190830397647, 39.880282460379, 11.94371327029138], [138.01100425403015, 39.94041051106178, 11.97162866243205], [140.01010020408387, 40.00053856174456, 12.009426370022137], [142.00919615413756, 40.06066661242734, 12.057107315643458], [144.00829210419124, 40.12079466311012, 12.114672663111563], [146.00738805424496, 40.180922713792896, 12.182123817504662], [148.00648400429864, 40.24105076447568, 12.25946242519771], [150.00557995435236, 40.30117881515846, 12.346690373902488], [152.00467590440604, 40.361306865841236, 12.443809792713985], [154.00377185445973, 40.421434916524014, 12.550823052162087], [156.00286780451341, 40.4815629672068, 12.667732764269376], [158.00196375456713, 40.541691017889576, 12.79454178261521], [160.00105970462081, 40.601819068572354, 12.93125320240522], [162.00015565467453, 40.66194711925513, 13.077870360546717]]}}, {"type": "Feature", "properties": {"kind": "conductor", "a": 392.56945492702454, "sag": 0.7976755944970897, "length": 50.042572098985026, "rmse": 0.030400672996520547, "poles": [2, 3], "min_dist": 5.9661047081959095, "n_within": 2}, "geometry": {"type": "LineString", "coordinates": [[109.99661973388963, 39.9976656094859, 12.500489457285887], [111.99571568394333, 40.05779366016868, 12.395800697255396], [113.99481163399702, 40.117921710851455, 12.301313862932707], [115.99390758405072, 40.17804976153424, 12.217026501873228], [117.99300353410442, 40.23817781221702, 12.142936426363809], [119.9920994841581, 40.298305862899795, 12.079041713366085], [121.9911954342118, 40.35843391358257, 12.02534070446635], [123.9902913842655, 40.41856196426536, 11.981832005832935], [125.98938733431919, 40.478690014948135, 11.948514488179601], [127.98848328437289, 40.53881806563091, 11.925387286736504], [129.9875792344266, 40.59894611631369, 11.912449801227538], [131.98667518448028, 40.659074166996476, 11.909701695854991], [133.985771134534, 40.71920221767925, 11.917142899290655], [135.98486708458768, 40.77933026836203, 11.934773604673989], [137.98396303464136, 40.83945831904481, 11.962594269617277], [139.98305898469508, 40.899586369727594, 12.00060561621729], [141.98215493474876, 40.95971442041037, 12.048808631074216], [143.98125088480245, 41.01984247109315, 12.107204565317105], [145.98034683485616, 41.07997052177593, 12.175794934636384], [147.97944278490985, 41.14009857245871, 12.254581519323436], [149.97853873496354, 41.20022662314149, 12.34356636431653], [151.97763468501725, 41.26035467382427, 12.442751779253825], [153.97673063507094, 41.320482724507045, 12.552140338533775], [155.97582658512465, 41.38061077518983, 12.671734881381202], [157.97492253517834, 41.44073882587261, 12.801538511921912], [159.97401848523202, 41.500866876555385, 12.941554599262453], [161.9731144352857, 41.56099492723816, 13.091786777578072]]}}, {"type": "Feature", "properties": {"kind": "conductor", "a": 397.71245608291423, "sag": 0.787353137506928, "length": 50.042572098985026, "rmse": 0.030391221179293434, "poles": [2, 3], "min_dist": 5.297663528300628, "n_within": 2}, "geometry": {"type": "LineString", "coordinates": [[109.96955580894534, 40.89746831611493, 12.494243496030053], [111.96865175899904, 40.95759636679771, 12.390999560434816], [113.96774770905273, 41.01772441748049, 12.297825281820566], [115.96684365910643, 41.07785246816327, 12.214718303952488], [117.96593960916013, 41.13798051884605, 12.141676525182444], [119.96503555921382, 41.19810856952883, 12.078698098395728], [121.96413150926752, 41.258236620211605, 12.025781430964534], [123.96322745932122, 41.31836467089439, 11.982925184707229], [125.9623234093749, 41.37849272157717, 11.950128275855164], [127.9614193594286, 41.438620772259945, 11.927389875024668], [129.9605153094823, 41.49874882294272, 11.914709407196302], [131.959611259536, 41.55887687362551, 11.912086551700728], [133.9587072095897, 41.619004924308285, 11.919521242209791], [135.9578031596434, 41.67913297499106, 11.937013666735456], [137.95689910969708, 41.73926102567384, 11.964564267634222], [139.9559950597508, 41.799389076356626, 12.002173741618787], [141.95509100980448, 41.8595171270394, 12.049843039774995], [143.95418695985816, 41.91964517772218, 12.107573367586392], [145.95328290991188, 41.97977322840496, 12.1753661849646], [147.95237885996556, 42.03990127908774, 12.253223206286059], [149.95147481001925, 42.10002932977052, 12.34114640043547], [151.95057076007296, 42.1601573804533, 12.439137990855782], [153.94966671012665, 42.22028543113608, 12.547200455604356], [155.94876266018036, 42.28041348181886, 12.665336527415137], [157.94785861023405, 42.34054153250164, 12.793549193768415], [159.94695456028774, 42.40066958318442, 12.93184169696633], [161.94605051034142, 42.460797633867195, 13.080217534214215]]}}, {"type": "Feature", "properties": {"kind": "conductor", "a": 399.3205437604039, "sag": 0.8003518435168289, "length": 50.543818087707216, "rmse": 0.030774934678941063, "poles": [4, 5], "min_dist": 0.3632150051855908, "n_within": 424}, "geometry": {"type": "LineString", "coordinates": [[210.13796353607358, 48.129978443874144, 13.957291747666623], [212.11606654866583, 48.42511988720853, 13.899533443633663], [214.09416956125807, 48.72026133054292, 13.851795659085136], [216.0722725738503, 49.015402773877305, 13.814077196509032], [218.05037558644256, 49.31054421721169, 13.786377109730157], [220.02847859903477, 49.60568566054608, 13.768694703886108], [222.006581611627, 49.90082710388047, 13.761029535410337], [223.98468462421926, 50.195968547214854, 13.763381412020445], [225.9627876368115, 50.49110999054924, 13.775750392713752], [227.94089064940374, 50.78625143388363, 13.798136787768799], [229.91899366199598, 51.08139287721801, 13.830541158752537], [231.89709667458823, 51.376534320552395, 13.872964318535306], [233.87519968718047, 51.67167576388678, 13.92540733131061], [235.8533026997727, 51.96681720722117, 13.987871512621897], [237.83140571236495, 52.261958650555556, 14.060358429395714], [239.8095087249572, 52.55710009388994, 14.14286989998117], [241.7876117375494, 52.85224153722433, 14.235407994194883], [243.76571475014165, 53.14738298055872, 14.337975033373752], [245.7438177627339, 53.442524423893104, 14.450573590432478], [247.72192077532614, 53.73766586722749, 14.57320648992867], [249.70002378791838, 54.03280731056188, 14.70587680813323], [251.67812680051063, 54.327948753896266, 14.848587873107766], [253.65622981310287, 54.62309019723065, 15.001343264788026], [255.6343328256951, 54.91823164056504, 15.164146815073986], [257.61243583828735, 55.21337308389943, 15.337002607925339], [259.59053885087957, 55.508514527233814, 15.51991497946453], [261.56864186347184, 55.8036559705682, 15.712888518085112]]}}, {"type": "Feature", "properties": {"kind": "conductor", "a": 399.2600255000552, "sag": 0.8004715595990977, "length": 50.543818087707216, "rmse": 0.0345883646884333, "poles": [4, 5], "min_dist": 0.35848898969351084, "n_within": 404}, "geometry": {"type": "LineString", "coordinates": [[210.00561868647748, 49.01698279924195, 13.967470798653459], [211.98372169906972, 49.31212424257634, 13.90956274950657], [213.96182471166196, 49.607265685910725, 13.861676758423718], [215.9399277242542, 49.90240712924511, 13.823811623811295], [217.91803073684645, 50.1975485725795, 13.795966395526637], [219.89613374943866, 50.49269001591389, 13.778140374854805], [221.8742367620309, 50.787831459248274, 13.770333114490931], [223.85233977462315, 51.08297290258266, 13.772544418528966], [225.8304427872154, 51.37811434591705, 13.784774342456712], [227.80854579980763, 51.673255789251435, 13.807023193157248], [229.78664881239987, 51.968397232585815, 13.839291528916808], [231.76475182499212, 52.2635386759202, 13.881580159438357], [233.74285483758436, 52.55868011925459, 13.933890145862327], [235.7209578501766, 52.853821562588976, 13.996222800793305], [237.69906086276885, 53.14896300592336, 14.068579688332218], [239.6771638753611, 53.44410444925775, 14.150962624116662], [241.6552668879533, 53.73924589259214, 14.243373675365683], [243.63336990054555, 54.034387335926525, 14.345815160931892], [245.6114729131378, 54.32952877926091, 14.458289651359722], [247.58957592573003, 54.6246702225953, 14.580799968949696], [249.56767893832227, 54.919811665929686, 14.713349187829529], [251.54578195091452, 55.21495310926407, 14.855940634031345], [253.52388496350676, 55.51009455259846, 15.008577885574475], [255.501987976099, 55.80523599593285, 15.171264772556073], [257.48009098869125, 56.100377439267234, 15.344005377246669], [259.45819400128346, 56.39551888260162, 15.526804034192928], [261.43629701387573, 56.69066032593601, 15.719665330326073]]}}, {"type": "Feature", "properties": {"kind": "conductor", "a": 391.15845856315093, "sag": 0.8170706873484317, "length": 50.543818087707216, "rmse": 0.029079712166414907, "poles": [4, 5], "min_dist": 0.24063148780851987, "n_within": 352}, "geometry": {"type": "LineString", "coordinates": [[209.87221480499662, 49.911085019748406, 13.963879068334299], [211.85031781758886, 50.20622646308279, 13.904100587027589], [213.8284208301811, 50.50136790641718, 13.854551981592298], [215.80652384277334, 50.79650934975157, 13.815231956679064], [217.7846268553656, 51.091650793085954, 13.786139484344115], [219.76272986795783, 51.38679223642034, 13.767273804023036], [221.74083288055004, 51.68193367975473, 13.758634422510099], [223.7189358931423, 51.977075123089115, 13.76022111394619], [225.69703890573453, 52.2722165664235, 13.772033919811951], [227.67514191832677, 52.56735800975789, 13.794073148929686], [229.65324493091902, 52.86249945309227, 13.826339377471003], [231.63134794351126, 53.157640896426656, 13.868833448972195], [233.6094509561035, 53.45278233976104, 13.921556474355686], [235.58755396869574, 53.74792378309543, 13.984509831959912], [237.565656981288, 54.04306522642982, 14.057695167574666], [239.5437599938802, 54.338206669764205, 14.14111439448445], [241.52186300647244, 54.63334811309859, 14.23476969351849], [243.4999660190647, 54.92848955643298, 14.33866351310755], [245.47806903165693, 55.223630999767366, 14.452798569348191], [247.45617204424917, 55.51877244310175, 14.577177846073662], [249.43427505684141, 55.81391388643614, 14.711804594931705], [251.41237806943366, 56.10905532977053, 14.85668233547003], [253.3904810820259, 56.404196773104914, 15.011814855227945], [255.36858409461814, 56.6993382164393, 15.177206209835456], [257.34668710721036, 56.99447965977369, 15.352860723119488], [259.3247901198026, 57.289621103108075, 15.538782987216539], [261.30289313239484, 57.58476254644246, 15.734977862693059]]}}, {"type": "Feature", "properties": {"kind": "conductor", "a": 390.35910360902614, "sag": 0.8186496123512619, "length": 50.54880232880117, "rmse": 0.031779607726416345, "poles": [3, 4], "min_dist": 2.7297819398768146, "n_within": 10}, "geometry": {"type": "LineString", "coordinates": [[160.15098348706633, 40.617666794481075, 12.948451855584688], [162.1289243213517, 40.91389315398758, 12.864530080430427], [164.10686515563708, 41.21011951349409, 12.79086325196511], [166.08480598992244, 41.5063458730006, 12.727449436421123], [168.06274682420784, 41.80257223250711, 12.674286969174354], [170.0406876584932, 42.098798592013615, 12.631374454700254], [172.01862849277856, 42.39502495152013, 12.598710766537515], [173.99656932706395, 42.69125131102663, 12.576295047258343], [175.97451016134931, 42.987477670533146, 12.564126708446182], [177.9524509956347, 43.28370403003965, 12.562205430679846], [179.93039182992007, 43.57993038954616, 12.570531163525379], [181.90833266420543, 43.87615674905267, 12.589104125534838], [183.88627349849082, 44.172383108559174, 12.61792480425184], [185.86421433277619, 44.46860946806569, 12.656993956224568], [187.84215516706155, 44.7648358275722, 12.706312607025176], [189.82009600134694, 45.061062187078704, 12.765882051277277], [191.7980368356323, 45.35728854658521, 12.835703852689658], [193.7759776699177, 45.65351490609172, 12.915779844097273], [195.75391850420306, 45.94974126559823, 13.006112127509526], [197.73185933848845, 46.24596762510474, 13.106703074165226], [199.7098001727738, 46.542193984611245, 13.217555324594988], [201.68774100705917, 46.83842034411776, 13.338671788690672], [203.66568184134456, 47.13464670362426, 13.470055645781384], [205.64362267562993, 47.430873063130775, 13.611710344717311], [207.6215635099153, 47.72709942263728, 13.763639603960108], [209.59950434420068, 48.023325782143786, 13.925847411680422], [211.57744517848604, 48.3195521416503, 14.09833802586268]]}}, {"type": "Feature", "properties": {"kind": "conductor", "a": 404.3319334235331, "sag": 0.7903387285904788, "length": 50.54880232880117, "rmse": 0.030316596762187238, "poles": [3, 4], "min_dist": 2.812168352367886, "n_within": 11}, "geometry": {"type": "LineString", "coordinates": [[160.01746442680175, 41.50919043165059, 12.936162767200019], [161.99540526108711, 41.80541679115709, 12.856377066119018], [163.9733460953725, 42.101643150663605, 12.786491170189741], [165.95128692965787, 42.39786951017011, 12.726503369498083], [167.92922776394326, 42.69409586967662, 12.676412196308588], [169.90716859822862, 42.99032222918313, 12.636216425029174], [171.88510943251399, 43.28654858868964, 12.605915072180684], [173.86305026679938, 43.582774948196146, 12.585507396372929], [175.84099110108474, 43.87900130770266, 12.574992898286634], [177.81893193537013, 44.175227667209164, 12.574371320661145], [179.7968727696555, 44.471454026715676, 12.583642648288219], [181.77481360394086, 44.76768038622218, 12.602807108011508], [183.75275443822625, 45.06390674572869, 12.631865168732284], [185.7306952725116, 45.3601331052352, 12.670817541420854], [187.70863610679697, 45.65635946474171, 12.719665179133614], [189.68657694108236, 45.95258582424822, 12.778409277037198], [191.66451777536773, 46.24881218375472, 12.847051272436675], [193.64245860965312, 46.545038543261235, 12.925592844811627], [195.62039944393848, 46.84126490276774, 13.014035915856747], [197.59834027822387, 47.13749126227425, 13.11238264952887], [199.57628111250924, 47.43371762178076, 13.220635452099954], [201.5542219467946, 47.72994398128727, 13.33879697221641], [203.53216278108, 48.026170340793776, 13.466870100963044], [205.51010361536535, 48.32239670030029, 13.604857971934411], [207.48804444965072, 48.618623059806794, 13.752763961311683], [209.4659852839361, 48.9148494193133, 13.910591687944251], [211.44392611822147, 49.21107577881981, 14.078345013439598]]}}, {"type": "Feature", "properties": {"kind": "conductor", "a": 400.01638990238285, "sag": 0.7988738253156011, "length": 50.54880232880117, "rmse": 0.029770120213668008, "poles": [3, 4], "min_dist": 2.937890462195139, "n_within": 7}, "geometry": {"type": "LineString", "coordinates": [[159.88426033041324, 42.39861101521988, 12.936269833648845], [161.8622011646986, 42.69483737472638, 12.855548791327697], [163.840141998984, 42.991063734232895, 12.784834523656313], [165.81808283326936, 43.2872900937394, 12.724125262919163], [167.79602366755475, 43.58351645324591, 12.673419491506023], [169.7739645018401, 43.87974281275242, 12.632715941873691], [171.75190533612547, 44.17596917225893, 12.6020135965149], [173.72984617041087, 44.472195531765436, 12.581311687932198], [175.70778700469623, 44.76842189127195, 12.570609698619217], [177.68572783898162, 45.064648250778454, 12.569907361047521], [179.66366867326698, 45.36087461028497, 12.579204657660123], [181.64160950755235, 45.65710096979147, 12.598501820871041], [183.61955034183774, 45.95332732929798, 12.62779933307054], [185.5974911761231, 46.24955368880449, 12.667097926638185], [187.57543201040846, 46.545780048311, 12.716398583960165], [189.55337284469385, 46.84200640781751, 12.77570253745452], [191.53131367897922, 47.13823276732401, 12.845011269601777], [193.5092545132646, 47.434459126830525, 12.924326512981818], [195.48719534754997, 47.73068548633703, 13.013650250317397], [197.46513618183536, 48.02691184584354, 13.112984714523531], [199.44307701612072, 48.32313820535005, 13.222332388763453], [201.4210178504061, 48.61936456485656, 13.341696006510963], [203.39895868469148, 48.915590924363066, 13.471078551617852], [205.37689951897684, 49.21181728386958, 13.610483258389744], [207.3548403532622, 49.508043643376084, 13.759913611665688], [209.3327811875476, 49.80427000288259, 13.919373346906449], [211.31072202183296, 50.1004963623891, 14.088866450286869]]}}]}